[{"OBJECT_NAME":"FLOCK 4H-16","OBJECT_ID":"2025-276BF","EPOCH":"2026-03-09T18:22:00.923808","MEAN_MOTION":15.18505927,"ECCENTRICITY":0.00041583,"INCLINATION":97.4302,"RA_OF_ASC_NODE":144.0218,"ARG_OF_PERICENTER":10.1736,"MEAN_ANOMALY":349.9581,"EPHEMERIS_TYPE":0,"CLASSIFICATION_TYPE":"U","NORAD_CAT_ID":66719,"ELEMENT_SET_NO":999,"REV_AT_EPOCH":1532,"BSTAR":0.00041273119,"MEAN_MOTION_DOT":8.452e-5,"MEAN_MOTION_DDOT":0},{"OBJECT_NAME":"OBJECT E","OBJECT_ID":"2026-027E","EPOCH":"2026-03-09T23:02:51.074304","MEAN_MOTION":15.18126455,"ECCENTRICITY":0.00095432,"INCLINATION":97.4916,"RA_OF_ASC_NODE":197.9906,"ARG_OF_PERICENTER":204.0559,"MEAN_ANOMALY":156.0231,"EPHEMERIS_TYPE":0,"CLASSIFICATION_TYPE":"U","NORAD_CAT_ID":67750,"ELEMENT_SET_NO":999,"REV_AT_EPOCH":390,"BSTAR":0.00052617812,"MEAN_MOTION_DOT":0.00010689,"MEAN_MOTION_DDOT":0}]
